{"type": "FeatureCollection", "features": [{"type": "Feature", "properties": {"norad_id": 28054, "name": "DMSP 5D-3 F16 (USA 172)", "group": "weather", "lat": -34.435376502318334, "lon": 25.20738067389915, "alt_km": 847.5900663925077, "timestamp": "2025-12-27T09:28:56.109266+00:00", "meta": {"OBJECT_NAME": "DMSP 5D-3 F16 (USA 172)", "OBJECT_ID": "2003-048A", "EPOCH": "2025-12-27T03:15:53.754912", "MEAN_MOTION": 14.14429299, "ECCENTRICITY": 0.0006245, "INCLINATION": 99.0037, "RA_OF_ASC_NODE": 18.7056, "ARG_OF_PERICENTER": 274.5593, "MEAN_ANOMALY": 172.1978, "EPHEMERIS_TYPE": 0, "CLASSIFICATION_TYPE": "U", "NORAD_CAT_ID": 28054, "ELEMENT_SET_NO": 999, "REV_AT_EPOCH": 14516, "BSTAR": 9.8056e-05, "MEAN_MOTION_DOT": 1.42e-06, "MEAN_MOTION_DDOT": 0}, "tle": {"line1": "1 28054U 03048A   25361.13603883  .00000142  00000+0  98056-4 0  9991", "line2": "2 28054  99.0037  18.7056 0006245 274.5593 172.1978 14.14429299145165"}}, "geometry": {"type": "Point", "coordinates": [25.20738067389915, -34.435376502318334]}}, {"type": "Feature", "properties": {"norad_id": 28912, "name": "METEOSAT-9 (MSG-2)", "group": "weather", "lat": -6.518515807676046, "lon": -77.87828009945126, "alt_km": 35614.7947032399, "timestamp": "2025-12-27T09:28:56.109317+00:00", "meta": {"OBJECT_NAME": "METEOSAT-9 (MSG-2)", "OBJECT_ID": "2005-049B", "EPOCH": "2025-12-24T18:27:10.310976", "MEAN_MOTION": 1.00268275, "ECCENTRICITY": 0.00719695, "INCLINATION": 8.9553, "RA_OF_ASC_NODE": 55.846, "ARG_OF_PERICENTER": 282.2974, "MEAN_ANOMALY": 77.0088, "EPHEMERIS_TYPE": 0, "CLASSIFICATION_TYPE": "U", "NORAD_CAT_ID": 28912, "ELEMENT_SET_NO": 999, "REV_AT_EPOCH": 524, "BSTAR": 0, "MEAN_MOTION_DOT": 1.45e-06, "MEAN_MOTION_DDOT": 0}, "tle": {"line1": "1 28912U 05049B   25358.76886934  .00000145  00000+0  00000+0 0  9992", "line2": "2 28912   8.9553  55.8460 0071969 282.2974  77.0088  1.00268275  5240"}}, "geometry": {"type": "Point", "coordinates": [-77.87828009945126, -6.518515807676046]}}, {"type": "Feature", "properties": {"norad_id": 29522, "name": "DMSP 5D-3 F17 (USA 191)", "group": "weather", "lat": -66.99990668368423, "lon": 27.725331264428803, "alt_km": 852.2485999892733, "timestamp": "2025-12-27T09:28:56.109336+00:00", "meta": {"OBJECT_NAME": "DMSP 5D-3 F17 (USA 191)", "OBJECT_ID": "2006-050A", "EPOCH": "2025-12-27T03:01:05.049696", "MEAN_MOTION": 14.14925865, "ECCENTRICITY": 0.0010044, "INCLINATION": 98.7393, "RA_OF_ASC_NODE": 6.2153, "ARG_OF_PERICENTER": 182.2221, "MEAN_ANOMALY": 177.8909, "EPHEMERIS_TYPE": 0, "CLASSIFICATION_TYPE": "U", "NORAD_CAT_ID": 29522, "ELEMENT_SET_NO": 999, "REV_AT_EPOCH": 98808, "BSTAR": 0.00012993, "MEAN_MOTION_DOT": 2.08e-06, "MEAN_MOTION_DDOT": 0}, "tle": {"line1": "1 29522U 06050A   25361.12575289  .00000208  00000+0  12993-3 0  9993", "line2": "2 29522  98.7393   6.2153 0010044 182.2221 177.8909 14.14925865988084"}}, "geometry": {"type": "Point", "coordinates": [27.725331264428803, -66.99990668368423]}}, {"type": "Feature", "properties": {"norad_id": 32958, "name": "FENGYUN 3A", "group": "weather", "lat": -65.79693061214977, "lon": 100.76684040067063, "alt_km": 828.9000872436882, "timestamp": "2025-12-27T09:28:56.109351+00:00", "meta": {"OBJECT_NAME": "FENGYUN 3A", "OBJECT_ID": "2008-026A", "EPOCH": "2025-12-26T20:28:43.261536", "MEAN_MOTION": 14.19518996, "ECCENTRICITY": 0.00076137, "INCLINATION": 98.6714, "RA_OF_ASC_NODE": 300.084, "ARG_OF_PERICENTER": 264.5136, "MEAN_ANOMALY": 95.5172, "EPHEMERIS_TYPE": 0, "CLASSIFICATION_TYPE": "U", "NORAD_CAT_ID": 32958, "ELEMENT_SET_NO": 999, "REV_AT_EPOCH": 91095, "BSTAR": 8.1606007e-05, "MEAN_MOTION_DOT": 1.29e-06, "MEAN_MOTION_DDOT": 0}, "tle": {"line1": "1 32958U 08026A   25360.85327849  .00000129  00000+0  81606-4 0  9991", "line2": "2 32958  98.6714 300.0840 0007613 264.5136  95.5172 14.19518996910959"}}, "geometry": {"type": "Point", "coordinates": [100.76684040067063, -65.79693061214977]}}, {"type": "Feature", "properties": {"norad_id": 35491, "name": "GOES 14", "group": "weather", "lat": 0.7129735807732221, "lon": 119.35850950738094, "alt_km": 35838.15732403534, "timestamp": "2025-12-27T09:28:56.109366+00:00", "meta": {"OBJECT_NAME": "GOES 14", "OBJECT_ID": "2009-033A", "EPOCH": "2025-12-26T22:44:26.774304", "MEAN_MOTION": 1.00097083, "ECCENTRICITY": 7.86e-05, "INCLINATION": 1.2388, "RA_OF_ASC_NODE": 85.255, "ARG_OF_PERICENTER": 194.6495, "MEAN_ANOMALY": 38.1879, "EPHEMERIS_TYPE": 0, "CLASSIFICATION_TYPE": "U", "NORAD_CAT_ID": 35491, "ELEMENT_SET_NO": 999, "REV_AT_EPOCH": 486, "BSTAR": 0, "MEAN_MOTION_DOT": 4.4e-07, "MEAN_MOTION_DDOT": 0}, "tle": {"line1": "1 35491U 09033A   25360.94753211  .00000044  00000+0  00000+0 0  9991", "line2": "2 35491   1.2388  85.2550 0000786 194.6495  38.1879  1.00097083  4862"}}, "geometry": {"type": "Point", "coordinates": [119.35850950738094, 0.7129735807732221]}}, {"type": "Feature", "properties": {"norad_id": 35951, "name": "DMSP 5D-3 F18 (USA 210)", "group": "weather", "lat": 28.380148846287508, "lon": 162.5717600076738, "alt_km": 846.7965307221039, "timestamp": "2025-12-27T09:28:56.109378+00:00", "meta": {"OBJECT_NAME": "DMSP 5D-3 F18 (USA 210)", "OBJECT_ID": "2009-057A", "EPOCH": "2025-12-27T03:40:44.306112", "MEAN_MOTION": 14.14778941, "ECCENTRICITY": 0.0011615, "INCLINATION": 98.8852, "RA_OF_ASC_NODE": 337.4832, "ARG_OF_PERICENTER": 24.555, "MEAN_ANOMALY": 335.6174, "EPHEMERIS_TYPE": 0, "CLASSIFICATION_TYPE": "U", "NORAD_CAT_ID": 35951, "ELEMENT_SET_NO": 999, "REV_AT_EPOCH": 83526, "BSTAR": 0.00019438, "MEAN_MOTION_DOT": 3.3e-06, "MEAN_MOTION_DDOT": 0}, "tle": {"line1": "1 35951U 09057A   25361.15329058  .00000330  00000+0  19438-3 0  9997", "line2": "2 35951  98.8852 337.4832 0011615  24.5550 335.6174 14.14778941835269"}}, "geometry": {"type": "Point", "coordinates": [162.5717600076738, 28.380148846287508]}}, {"type": "Feature", "properties": {"norad_id": 36411, "name": "EWS-G2 (GOES 15)", "group": "weather", "lat": -0.487613083163005, "lon": -60.26767698073858, "alt_km": 35766.22412096566, "timestamp": "2025-12-27T09:28:56.109393+00:00", "meta": {"OBJECT_NAME": "EWS-G2 (GOES 15)", "OBJECT_ID": "2010-008A", "EPOCH": "2025-12-27T03:01:20.548128", "MEAN_MOTION": 1.00270994, "ECCENTRICITY": 0.0005679, "INCLINATION": 0.8473, "RA_OF_ASC_NODE": 86.0597, "ARG_OF_PERICENTER": 180.4501, "MEAN_ANOMALY": 296.0333, "EPHEMERIS_TYPE": 0, "CLASSIFICATION_TYPE": "U", "NORAD_CAT_ID": 36411, "ELEMENT_SET_NO": 999, "REV_AT_EPOCH": 5791, "BSTAR": 0, "MEAN_MOTION_DOT": 6e-07, "MEAN_MOTION_DDOT": 0}, "tle": {"line1": "1 36411U 10008A   25361.12593227  .00000060  00000+0  00000+0 0  9996", "line2": "2 36411   0.8473  86.0597 0005679 180.4501 296.0333  1.00270994 57910"}}, "geometry": {"type": "Point", "coordinates": [-60.26767698073858, -0.487613083163005]}}, {"type": "Feature", "properties": {"norad_id": 36744, "name": "COMS 1", "group": "weather", "lat": -4.1459793731961705, "lon": 6.574264980728684, "alt_km": 35786.39446300521, "timestamp": "2025-12-27T09:28:56.109406+00:00", "meta": {"OBJECT_NAME": "COMS 1", "OBJECT_ID": "2010-032A", "EPOCH": "2025-12-25T12:42:15.782976", "MEAN_MOTION": 1.00270082, "ECCENTRICITY": 8.877e-05, "INCLINATION": 4.3689, "RA_OF_ASC_NODE": 77.8525, "ARG_OF_PERICENTER": 213.8569, "MEAN_ANOMALY": 121.3153, "EPHEMERIS_TYPE": 0, "CLASSIFICATION_TYPE": "U", "NORAD_CAT_ID": 36744, "ELEMENT_SET_NO": 999, "REV_AT_EPOCH": 4934, "BSTAR": 0, "MEAN_MOTION_DOT": -3.24e-06, "MEAN_MOTION_DDOT": 0}, "tle": {"line1": "1 36744U 10032A   25359.52934934 -.00000324  00000+0  00000+0 0  9991", "line2": "2 36744   4.3689  77.8525 0000887 213.8569 121.3153  1.00270082 49343"}}, "geometry": {"type": "Point", "coordinates": [6.574264980728684, -4.1459793731961705]}}, {"type": "Feature", "properties": {"norad_id": 37214, "name": "FENGYUN 3B", "group": "weather", "lat": 61.84194107820687, "lon": -121.32632441206636, "alt_km": 851.5814190350193, "timestamp": "2025-12-27T09:28:56.109418+00:00", "meta": {"OBJECT_NAME": "FENGYUN 3B", "OBJECT_ID": "2010-059A", "EPOCH": "2025-12-27T04:15:19.187424", "MEAN_MOTION": 14.14794382, "ECCENTRICITY": 0.0021412, "INCLINATION": 98.9888, "RA_OF_ASC_NODE": 41.2538, "ARG_OF_PERICENTER": 316.1912, "MEAN_ANOMALY": 131.8401, "EPHEMERIS_TYPE": 0, "CLASSIFICATION_TYPE": "U", "NORAD_CAT_ID": 37214, "ELEMENT_SET_NO": 999, "REV_AT_EPOCH": 78310, "BSTAR": 8.2388e-05, "MEAN_MOTION_DOT": 1.14e-06, "MEAN_MOTION_DDOT": 0}, "tle": {"line1": "1 37214U 10059A   25361.17730541  .00000114  00000+0  82388-4 0  9995", "line2": "2 37214  98.9888  41.2538 0021412 316.1912 131.8401 14.14794382783105"}}, "geometry": {"type": "Point", "coordinates": [-121.32632441206636, 61.84194107820687]}}, {"type": "Feature", "properties": {"norad_id": 37849, "name": "SUOMI NPP", "group": "weather", "lat": -25.935738345458024, "lon": 114.29568602754163, "alt_km": 833.257779162167, "timestamp": "2025-12-27T09:28:56.109430+00:00", "meta": {"OBJECT_NAME": "SUOMI NPP", "OBJECT_ID": "2011-061A", "EPOCH": "2025-12-26T22:21:51.604128", "MEAN_MOTION": 14.19518423, "ECCENTRICITY": 0.0002548, "INCLINATION": 98.7791, "RA_OF_ASC_NODE": 298.1468, "ARG_OF_PERICENTER": 95.8793, "MEAN_ANOMALY": 264.2673, "EPHEMERIS_TYPE": 0, "CLASSIFICATION_TYPE": "U", "NORAD_CAT_ID": 37849, "ELEMENT_SET_NO": 999, "REV_AT_EPOCH": 73400, "BSTAR": 8.5992e-05, "MEAN_MOTION_DOT": 1.37e-06, "MEAN_MOTION_DDOT": 0}, "tle": {"line1": "1 37849U 11061A   25360.93184727  .00000137  00000+0  85992-4 0  9994", "line2": "2 37849  98.7791 298.1468 0002548  95.8793 264.2673 14.19518423734004"}}, "geometry": {"type": "Point", "coordinates": [114.29568602754163, -25.935738345458024]}}]}